     2.11           N: GPS NAV DATA                         RINEX VERSION / TYPE
CONVBIN 2.4.3                           20160828 162200 UTC PGM / RUN BY / DATE 
log: Rover.ubx                                              COMMENT             
format: u-blox                                              COMMENT             
                                                            END OF HEADER       
11 16  8 28 16  0  0.0 -.661321450025E-03 -.238742359215E-11  .000000000000E+00
     .103000000000E+03 -.102531250000E+03  .624133140508E-08  .545405536707E+00
    -.534765422344E-05  .167817312758E-01  .781565904617E-05  .515367652512E+04
     .576000000000E+05 -.199303030968E-06  .198820446351E+01 -.391155481339E-07
     .897612541074E+00  .200500000000E+03  .156280479885E+01 -.920216902156E-08
    -.251796202608E-09  .100000000000E+01  .191200000000E+04  .000000000000E+00
     .340000000000E+01  .000000000000E+00 -.121071934700E-07  .103000000000E+03
     .561060000000E+05  .400000000000E+01
 1 16  8 28 15 59 44.0  .319653190672E-04  .136424205266E-11  .000000000000E+00
     .900000000000E+01 -.793125000000E+02  .435982446133E-08  .112679062486E+01
    -.393390655518E-05  .585695670452E-02  .108201056719E-04  .515364408302E+04
     .575840000000E+05 -.130385160446E-07  .237177312237E+01  .856816768646E-07
     .965304616218E+00  .172250000000E+03  .532042161874E+00 -.797640367780E-08
    -.109290266664E-09  .100000000000E+01  .191200000000E+04  .000000000000E+00
     .240000000000E+01  .000000000000E+00  .512227416039E-08  .900000000000E+01
     .561060000000E+05  .400000000000E+01
22 16  8 28 15 59 44.0  .259954016656E-03 -.989075488178E-11  .000000000000E+00
     .400000000000E+01  .296562500000E+02  .550022910662E-08  .273628706699E+01
     .143982470036E-05  .751180294901E-02  .777840614319E-05  .515374036980E+04
     .575840000000E+05  .670552253723E-07 -.290596028057E+01 -.633299350739E-07
     .923415324846E+00  .204781250000E+03 -.187135397263E+01 -.835106214097E-08
     .326442169055E-09  .100000000000E+01  .191200000000E+04  .000000000000E+00
     .240000000000E+01  .000000000000E+00 -.176951289177E-07  .400000000000E+01
     .561060000000E+05  .400000000000E+01
 8 16  8 28 16  0  0.0 -.296551734209E-04 -.147792889038E-11  .000000000000E+00
     .310000000000E+02 -.567812500000E+02  .486270255108E-08 -.222672431059E+01
    -.282749533653E-05  .170146452729E-02  .309385359287E-05  .515373780060E+04
     .576000000000E+05 -.614672899246E-07  .131019516936E+01  .204890966415E-07
     .963885449629E+00  .321125000000E+03 -.101997515660E+01 -.837284876276E-08
    -.775032283206E-10  .100000000000E+01  .191200000000E+04  .000000000000E+00
     .240000000000E+01  .000000000000E+00  .512227416039E-08  .310000000000E+02
     .561060000000E+05  .400000000000E+01
 3 16  8 28 16  0  0.0 -.836374238133E-04 -.250111042988E-11  .000000000000E+00
     .670000000000E+02  .235000000000E+02  .474234039466E-08  .751415803804E+00
     .110641121864E-05  .147745478898E-03  .800937414169E-05  .515363007545E+04
     .576000000000E+05 -.558793544769E-08 -.287014187979E+01  .745058059692E-08
     .959744784354E+00  .221406250000E+03 -.234189441330E+00 -.809533720329E-08
     .324299222650E-09  .100000000000E+01  .191200000000E+04  .000000000000E+00
     .240000000000E+01  .000000000000E+00  .139698386192E-08  .670000000000E+02
     .561060000000E+05  .400000000000E+01
14 16  8 28 16  0  0.0 -.321902334690E-04 -.193267624127E-11  .000000000000E+00
     .820000000000E+02 -.174375000000E+02  .453554606656E-08  .282563586392E+01
    -.882893800735E-06  .894778675865E-02  .631622970104E-05  .515404720116E+04
     .576000000000E+05  .335276126862E-07 -.174693758397E+01 -.707805156708E-07
     .963018819885E+00  .256312500000E+03 -.195530819185E+01 -.793783064251E-08
    -.307869966877E-09  .100000000000E+01  .191200000000E+04  .000000000000E+00
     .240000000000E+01  .000000000000E+00 -.931322574615E-08  .820000000000E+02
     .561060000000E+05  .400000000000E+01
32 16  8 28 15 59 44.0 -.949786044657E-04 -.133013600134E-10  .000000000000E+00
     .150000000000E+02 -.162187500000E+02  .472841124302E-08 -.266469039473E+01
    -.696629285812E-06  .658101169392E-03  .598654150963E-05  .515363249588E+04
     .575840000000E+05 -.614672899246E-07 -.182961357413E+01  .745058059692E-08
     .958807305487E+00  .263062500000E+03 -.231198780199E+01 -.814998233662E-08
    -.241081470582E-09  .100000000000E+01  .191200000000E+04  .000000000000E+00
     .240000000000E+01  .000000000000E+00  .931322574615E-09  .150000000000E+02
     .561060000000E+05  .400000000000E+01
28 16  8 28 16  0  0.0  .547881238163E-03  .284217094304E-11  .000000000000E+00
     .200000000000E+01  .101750000000E+03  .392266339468E-08 -.219849613738E+01
     .541470944881E-05  .198188122595E-01  .447407364845E-05  .515363187790E+04
     .576000000000E+05  .264495611191E-06  .348432108110E+00  .117346644402E-06
     .989620611476E+00  .301750000000E+03 -.161259612415E+01 -.770924969262E-08
     .478948521557E-09  .100000000000E+01  .191200000000E+04  .000000000000E+00
     .240000000000E+01  .000000000000E+00 -.107102096081E-07  .200000000000E+01
     .561060000000E+05  .400000000000E+01
27 16  8 28 16  0  0.0  .132259912789E-03  .466116034659E-11  .000000000000E+00
     .110000000000E+02 -.553750000000E+02  .459233414629E-08 -.305087856349E+01
    -.288151204586E-05  .380505796056E-02  .300817191601E-05  .515364880562E+04
     .576000000000E+05 -.108033418655E-06  .131362159706E+01 -.558793544769E-07
     .971978480679E+00  .328718750000E+03  .347283173212E+00 -.823534303509E-08
    -.104290058385E-09  .100000000000E+01  .191200000000E+04  .000000000000E+00
     .240000000000E+01  .000000000000E+00  .186264514923E-08  .110000000000E+02
     .561060000000E+05  .400000000000E+01
10 16  8 28 16  0  0.0 -.900337472558E-04 -.545696821064E-11  .000000000000E+00
     .680000000000E+02  .237500000000E+02  .456554731623E-08 -.108300958438E+01
     .113807618618E-05  .168344646227E-02  .895373523235E-05  .515367940521E+04
     .576000000000E+05  .931322574615E-08 -.287406825682E+01 -.558793544769E-07
     .959968957532E+00  .210531250000E+03 -.280790595511E+01 -.798926135623E-08
     .321084803042E-09  .100000000000E+01  .191200000000E+04  .000000000000E+00
     .240000000000E+01  .000000000000E+00  .232830643654E-08  .680000000000E+02
     .561060000000E+05  .400000000000E+01
17 16  8 28 16  0  0.0 -.203051138669E-03  .341060513165E-12  .000000000000E+00
     .490000000000E+02 -.778437500000E+02  .451375944477E-08 -.304779816272E+01
    -.394694507122E-05  .111092658481E-01  .292062759399E-05  .515373768425E+04
     .576000000000E+05  .197440385818E-06  .136408567450E+01 -.121071934700E-06
     .977029013706E+00  .329781250000E+03 -.192397794328E+01 -.815355391396E-08
    -.181793286706E-09  .100000000000E+01  .191200000000E+04  .000000000000E+00
     .240000000000E+01  .000000000000E+00 -.107102096081E-07  .490000000000E+02
     .561060000000E+05  .400000000000E+01
23 16  8 28 16  0  0.0 -.187838450074E-03 -.136424205266E-11  .000000000000E+00
     .500000000000E+02 -.135000000000E+02  .513164232493E-08  .194679460111E+01
    -.812113285065E-06  .111622437835E-01  .644661486149E-05  .515361779976E+04
     .576000000000E+05 -.227242708206E-06 -.182710088213E+01 -.558793544769E-08
     .945154874134E+00  .251500000000E+03 -.253516916075E+01 -.832713257278E-08
    -.382158775590E-09  .100000000000E+01  .191200000000E+04  .000000000000E+00
     .240000000000E+01  .000000000000E+00 -.200234353542E-07  .500000000000E+02
     .570360000000E+05  .400000000000E+01
